{"type": "FeatureCollection", "features": [ {"type": "Feature", "properties": {"norad_id": 36437, "name": "COSMOS 2251 DEB", "group": "cosmos-2251-debris", "lat": -62.758490322813515, "lon": 7.957541482946527, "alt_km": 650.5860033075633, "timestamp": "2025-12-08T15:42:50.193371+00:00", "meta": {"OBJECT_NAME": "COSMOS 2251 DEB", "OBJECT_ID": "1993-036BAL", "EPOCH": "2025-12-07T10:37:54.930432", "MEAN_MOTION": 14.70548023, "ECCENTRICITY": 0.00232535, "INCLINATION": 73.9427, "RA_OF_ASC_NODE": 44.3377, "ARG_OF_PERICENTER": 275.7564, "MEAN_ANOMALY": 84.0955, "EPHEMERIS_TYPE": 0, "CLASSIFICATION_TYPE": "U", "NORAD_CAT_ID": 36437, "ELEMENT_SET_NO": 999, "REV_AT_EPOCH": 65973, "BSTAR": 0.0023397048, "MEAN_MOTION_DOT": 0.00014265, "MEAN_MOTION_DDOT": 0}, "tle": {"line1": "1 36437U 93036BAL 25341.44299688  .00014265  00000+0  23397-2 0  9992", "line2": "2 36437  73.9427  44.3377 0023253 275.7564  84.0955 14.70548023659731"}}, "geometry": {"type": "Point", "coordinates": [7.957541482946527, -62.758490322813515]}}, {"type": "Feature", "properties": {"norad_id": 36439, "name": "COSMOS 2251 DEB", "group": "cosmos-2251-debris", "lat": -40.942515203860296, "lon": -122.31997525077117, "alt_km": 1367.945935321458, "timestamp": "2025-12-08T15:42:50.193393+00:00", "meta": {"OBJECT_NAME": "COSMOS 2251 DEB", "OBJECT_ID": "1993-036BAN", "EPOCH": "2025-12-06T12:43:47.991648", "MEAN_MOTION": 13.47777832, "ECCENTRICITY": 0.04274607, "INCLINATION": 73.9681, "RA_OF_ASC_NODE": 46.625, "ARG_OF_PERICENTER": 19.776, "MEAN_ANOMALY": 341.9362, "EPHEMERIS_TYPE": 0, "CLASSIFICATION_TYPE": "U", "NORAD_CAT_ID": 36439, "ELEMENT_SET_NO": 999, "REV_AT_EPOCH": 58529, "BSTAR": 0.0013215919, "MEAN_MOTION_DOT": 1.402e-05, "MEAN_MOTION_DDOT": 0}, "tle": {"line1": "1 36439U 93036BAN 25340.53041657  .00001402  00000+0  13216-2 0  9992", "line2": "2 36439  73.9681  46.6250 0427460  19.7760 341.9362 13.47777832585293"}}, "geometry": {"type": "Point", "coordinates": [-122.31997525077117, -40.942515203860296]}}, {"type": "Feature", "properties": {"norad_id": 36441, "name": "COSMOS 2251 DEB", "group": "cosmos-2251-debris", "lat": -41.332437032749745, "lon": -166.96726958536857, "alt_km": 594.769157298022, "timestamp": "2025-12-08T15:42:50.193404+00:00", "meta": {"OBJECT_NAME": "COSMOS 2251 DEB", "OBJECT_ID": "1993-036BAQ", "EPOCH": "2025-12-04T18:18:25.005024", "MEAN_MOTION": 15.06603971, "ECCENTRICITY": 0.01084902, "INCLINATION": 73.8352, "RA_OF_ASC_NODE": 6.3404, "ARG_OF_PERICENTER": 107.4279, "MEAN_ANOMALY": 253.8807, "EPHEMERIS_TYPE": 0, "CLASSIFICATION_TYPE": "U", "NORAD_CAT_ID": 36441, "ELEMENT_SET_NO": 999, "REV_AT_EPOCH": 86845, "BSTAR": 0.00090032635, "MEAN_MOTION_DOT": 0.00015248, "MEAN_MOTION_DDOT": 0}, "tle": {"line1": "1 36441U 93036BAQ 25338.76278941  .00015248  00000+0  90033-3 0  9991", "line2": "2 36441  73.8352   6.3404 0108490 107.4279 253.8807 15.06603971868459"}}, "geometry": {"type": "Point", "coordinates": [-166.96726958536857, -41.332437032749745]}}, {"type": "Feature", "properties": {"norad_id": 36442, "name": "COSMOS 2251 DEB", "group": "cosmos-2251-debris", "lat": 39.94475505664624, "lon": 61.939629794517394, "alt_km": 479.08828020876354, "timestamp": "2025-12-08T15:42:50.193415+00:00", "meta": {"OBJECT_NAME": "COSMOS 2251 DEB", "OBJECT_ID": "1993-036BAR", "EPOCH": "2025-12-06T22:39:26.591328", "MEAN_MOTION": 15.26969536, "ECCENTRICITY": 0.00090287, "INCLINATION": 73.9541, "RA_OF_ASC_NODE": 51.6347, "ARG_OF_PERICENTER": 319.5798, "MEAN_ANOMALY": 40.473, "EPHEMERIS_TYPE": 0, "CLASSIFICATION_TYPE": "U", "NORAD_CAT_ID": 36442, "ELEMENT_SET_NO": 999, "REV_AT_EPOCH": 85827, "BSTAR": 0.0074976763, "MEAN_MOTION_DOT": 0.00204314, "MEAN_MOTION_DDOT": 0}, "tle": {"line1": "1 36442U 93036BAR 25340.94405777  .00204314  00000+0  74977-2 0  9996", "line2": "2 36442  73.9541  51.6347 0009028 319.5798  40.4730 15.26969536858277"}}, "geometry": {"type": "Point", "coordinates": [61.939629794517394, 39.94475505664624]}}, {"type": "Feature", "properties": {"norad_id": 36451, "name": "COSMOS 2251 DEB", "group": "cosmos-2251-debris", "lat": 72.0132723789685, "lon": 100.12665985381457, "alt_km": 774.2024362672555, "timestamp": "2025-12-08T15:42:50.193426+00:00", "meta": {"OBJECT_NAME": "COSMOS 2251 DEB", "OBJECT_ID": "1993-036BBA", "EPOCH": "2025-12-06T07:23:52.845792", "MEAN_MOTION": 14.18714463, "ECCENTRICITY": 0.01842542, "INCLINATION": 73.9539, "RA_OF_ASC_NODE": 346.7676, "ARG_OF_PERICENTER": 172.6411, "MEAN_ANOMALY": 187.7508, "EPHEMERIS_TYPE": 0, "CLASSIFICATION_TYPE": "U", "NORAD_CAT_ID": 36451, "ELEMENT_SET_NO": 999, "REV_AT_EPOCH": 84134, "BSTAR": 0.0013122334, "MEAN_MOTION_DOT": 3.2e-05, "MEAN_MOTION_DDOT": 0}, "tle": {"line1": "1 36451U 93036BBA 25340.30825053  .00003200  00000+0  13122-2 0  9995", "line2": "2 36451  73.9539 346.7676 0184254 172.6411 187.7508 14.18714463841347"}}, "geometry": {"type": "Point", "coordinates": [100.12665985381457, 72.0132723789685]}}, {"type": "Feature", "properties": {"norad_id": 36453, "name": "COSMOS 2251 DEB", "group": "cosmos-2251-debris", "lat": -35.67499973412452, "lon": -7.905383379743581, "alt_km": 767.3587392469071, "timestamp": "2025-12-08T15:42:50.193436+00:00", "meta": {"OBJECT_NAME": "COSMOS 2251 DEB", "OBJECT_ID": "1993-036BBC", "EPOCH": "2025-12-05T22:56:55.070880", "MEAN_MOTION": 14.52531816, "ECCENTRICITY": 0.00702998, "INCLINATION": 73.9232, "RA_OF_ASC_NODE": 165.2675, "ARG_OF_PERICENTER": 70.5371, "MEAN_ANOMALY": 80.8599, "EPHEMERIS_TYPE": 0, "CLASSIFICATION_TYPE": "U", "NORAD_CAT_ID": 36453, "ELEMENT_SET_NO": 999, "REV_AT_EPOCH": 84369, "BSTAR": 0.0014781095, "MEAN_MOTION_DOT": 6.214e-05, "MEAN_MOTION_DDOT": 0}, "tle": {"line1": "1 36453U 93036BBC 25339.95619295  .00006214  00000+0  14781-2 0  9995", "line2": "2 36453  73.9232 165.2675 0070299  70.5371  80.8599 14.52531816843696"}}, "geometry": {"type": "Point", "coordinates": [-7.905383379743581, -35.67499973412452]}}, {"type": "Feature", "properties": {"norad_id": 36459, "name": "COSMOS 2251 DEB", "group": "cosmos-2251-debris", "lat": 17.956519442327743, "lon": -178.1320542564913, "alt_km": 758.4469249270678, "timestamp": "2025-12-08T15:42:50.193446+00:00", "meta": {"OBJECT_NAME": "COSMOS 2251 DEB", "OBJECT_ID": "1993-036BBJ", "EPOCH": "2025-11-27T21:25:14.011392", "MEAN_MOTION": 14.2626117, "ECCENTRICITY": 0.0114133, "INCLINATION": 74.0487, "RA_OF_ASC_NODE": 26.6161, "ARG_OF_PERICENTER": 126.4072, "MEAN_ANOMALY": 234.7668, "EPHEMERIS_TYPE": 0, "CLASSIFICATION_TYPE": "U", "NORAD_CAT_ID": 36459, "ELEMENT_SET_NO": 999, "REV_AT_EPOCH": 7670, "BSTAR": 0.0017749, "MEAN_MOTION_DOT": 4.537e-05, "MEAN_MOTION_DDOT": 0}, "tle": {"line1": "1 36459U 93036BBJ 25331.89252328  .00004537  00000+0  17749-2 0  9999", "line2": "2 36459  74.0487  26.6161 0114133 126.4072 234.7668 14.26261170 76702"}}, "geometry": {"type": "Point", "coordinates": [-178.1320542564913, 17.956519442327743]}}, {"type": "Feature", "properties": {"norad_id": 36470, "name": "COSMOS 2251 DEB", "group": "cosmos-2251-debris", "lat": 73.36674014049359, "lon": 6.910018632843233, "alt_km": 524.9574021812332, "timestamp": "2025-12-08T15:42:50.193456+00:00", "meta": {"OBJECT_NAME": "COSMOS 2251 DEB", "OBJECT_ID": "1993-036BBV", "EPOCH": "2025-12-02T03:03:18.136800", "MEAN_MOTION": 15.05586615, "ECCENTRICITY": 0.00218493, "INCLINATION": 73.8455, "RA_OF_ASC_NODE": 276.4446, "ARG_OF_PERICENTER": 104.1241, "MEAN_ANOMALY": 256.2378, "EPHEMERIS_TYPE": 0, "CLASSIFICATION_TYPE": "U", "NORAD_CAT_ID": 36470, "ELEMENT_SET_NO": 999, "REV_AT_EPOCH": 65934, "BSTAR": 0.0040110233, "MEAN_MOTION_DOT": 0.00058582, "MEAN_MOTION_DDOT": 0}, "tle": {"line1": "1 36470U 93036BBV 25336.12729325  .00058582  00000+0  40110-2 0  9996", "line2": "2 36470  73.8455 276.4446 0021849 104.1241 256.2378 15.05586615659346"}}, "geometry": {"type": "Point", "coordinates": [6.910018632843233, 73.36674014049359]}}, {"type": "Feature", "properties": {"norad_id": 36528, "name": "COSMOS 2251 DEB", "group": "cosmos-2251-debris", "lat": -30.242683975645058, "lon": -17.717939887941025, "alt_km": 734.8738134302384, "timestamp": "2025-12-08T15:42:50.193467+00:00", "meta": {"OBJECT_NAME": "COSMOS 2251 DEB", "OBJECT_ID": "1993-036BCN", "EPOCH": "2025-12-07T18:35:16.209888", "MEAN_MOTION": 14.3059773, "ECCENTRICITY": 0.00852102, "INCLINATION": 74.0157, "RA_OF_ASC_NODE": 154.2656, "ARG_OF_PERICENTER": 204.8135, "MEAN_ANOMALY": 154.8907, "EPHEMERIS_TYPE": 0, "CLASSIFICATION_TYPE": "U", "NORAD_CAT_ID": 36528, "ELEMENT_SET_NO": 999, "REV_AT_EPOCH": 64356, "BSTAR": 0.0018462235, "MEAN_MOTION_DOT": 4.991e-05, "MEAN_MOTION_DDOT": 0}, "tle": {"line1": "1 36528U 93036BCN 25341.77449317  .00004991  00000+0  18462-2 0  9997", "line2": "2 36528  74.0157 154.2656 0085210 204.8135 154.8907 14.30597730643565"}}, "geometry": {"type": "Point", "coordinates": [-17.717939887941025, -30.242683975645058]}}, {"type": "Feature", "properties": {"norad_id": 36533, "name": "COSMOS 2251 DEB", "group": "cosmos-2251-debris", "lat": 73.81579247926878, "lon": -156.4077561800976, "alt_km": 753.734890578974, "timestamp": "2025-12-08T15:42:50.193477+00:00", "meta": {"OBJECT_NAME": "COSMOS 2251 DEB", "OBJECT_ID": "1993-036BCT", "EPOCH": "2025-12-07T19:26:11.167872", "MEAN_MOTION": 14.49787559, "ECCENTRICITY": 0.00491855, "INCLINATION": 74.0112, "RA_OF_ASC_NODE": 124.0955, "ARG_OF_PERICENTER": 274.1122, "MEAN_ANOMALY": 85.4417, "EPHEMERIS_TYPE": 0, "CLASSIFICATION_TYPE": "U", "NORAD_CAT_ID": 36533, "ELEMENT_SET_NO": 999, "REV_AT_EPOCH": 84413, "BSTAR": 0.0008869214, "MEAN_MOTION_DOT": 3.445e-05, "MEAN_MOTION_DDOT": 0}, "tle": {"line1": "1 36533U 93036BCT 25341.80985148  .00003445  00000+0  88692-3 0  9990", "line2": "2 36533  74.0112 124.0955 0049185 274.1122  85.4417 14.49787559844137"}}, "geometry": {"type": "Point", "coordinates": [-156.4077561800976, 73.81579247926878]}}]}